HULIANWANG DIGUI-60     
1 65166U 25174C   26201.90063451  .00000043  00000+0  66536-4 0  9998
2 65166  86.4932 240.6167 0001890 102.6560 257.4785 13.24407236 45258
HULIANWANG DIGUI-61     
1 65167U 25174D   26201.90820538  .00000053  00000+0  89901-4 0  9998
2 65167  86.4941 240.6480 0001703 102.2601 257.8724 13.24407932 45252
HULIANWANG DIGUI-62     
1 65168U 25174E   26201.91563584  .00000042  00000+0  62774-4 0  9992
2 65168  86.4883 240.4573 0001814 105.6349 254.4986 13.24409521 45257
HULIANWANG DIGUI-63     
1 65169U 25174F   26201.92314064  .00000028  00000+0  32123-4 0  9990
2 65169  86.4936 240.6339 0001710 106.4442 253.6880 13.24403828 45255
HULIANWANG DIGUI-64     
1 65170U 25174G   26201.93084005  .00000017  00000+0  53345-5 0  9990
2 65170  86.4894 240.5022 0001876 104.8351 255.2991 13.24407782 45256
HULIANWANG DIGUI-65     
1 65171U 25174H   26201.94589824  .00000008  00000+0 -14599-4 0  9999
2 65171  86.4857 240.3881 0001738 100.9864 259.1466 13.24407762 45258
HULIANWANG DIGUI-66     
1 65172U 25174J   26201.93838748  .00000020  00000+0  12315-4 0  9998
2 65172  86.4893 240.5034 0001881 102.8429 257.2916 13.24407478 45251
HULIANWANG DIGUI-67     
1 65173U 25174K   26201.95345779  .00000026  00000+0  26478-4 0  9999
2 65173  86.4904 240.5473 0001845 101.2236 258.9105 13.24408958 45220
HULIANWANG DIGUI-68     
1 65228U 25178A   26201.90044567  .00000016  00000+0  29639-5 0  9992
2 65228  86.4995   2.1423 0001964  91.7123 268.4236 13.24411358 44776
HULIANWANG DIGUI-69     
1 65229U 25178B   26201.89299681  .00000003  00000+0 -27432-4 0  9995
2 65229  86.5016   2.2063 0001890  92.4680 267.6670 13.24412745 44771
HULIANWANG DIGUI-70     
1 65230U 25178C   26201.88543812  .00000003  00000+0 -26010-4 0  9995
2 65230  86.4948   1.9968 0001889  89.5288 270.6063 13.24411816 44773
HULIANWANG DIGUI-71     
1 65231U 25178D   26201.87790134  .00000023  00000+0  19223-4 0  9995
2 65231  86.5013   2.1911 0001944  90.4073 269.7284 13.24411587 44773
HULIANWANG DIGUI-72     
1 65232U 25178E   26201.87034938  .00000043  00000+0  67107-4 0  9995
2 65232  86.4996   2.1292 0001950  90.7995 269.3362 13.24411093 44773
HULIANWANG DIGUI-73     
1 65305U 25187A   26201.96812711 -.00000108  00000+0  35328-4 0  9992
2 65305  50.0055  84.7270 0000068   6.6784 353.4089 13.29323661 44195
HULIANWANG DIGUI-74     
1 65306U 25187B   26201.95152052 -.00000101  00000+0  49136-4 0  9992
2 65306  50.0098  84.7502 0000083 354.0594   6.0277 13.29321778 44194
HULIANWANG DIGUI-75     
1 65307U 25187C   26201.93482564 -.00000098  00000+0  56280-4 0  9998
2 65307  50.0090  84.6434 0000067  10.5238 349.5636 13.29323068 44199
