{"fetched_at":"2026-07-21T07:06:55.004Z","source":"https://celestrak.org/NORAD/elements/gp.php?NAME=HULIANWANG&FORMAT=JSON","constellation":"guowang","records":[{"OBJECT_NAME":"HULIANWANG DIGUI-60","OBJECT_ID":"2025-174C","EPOCH":"2026-07-20T21:36:54.821664","CLASSIFICATION_TYPE":"U","MEAN_MOTION":13.24407236,"ECCENTRICITY":0.00018902,"INCLINATION":86.4932,"RA_OF_ASC_NODE":240.6167,"ARG_OF_PERICENTER":102.656,"MEAN_ANOMALY":257.4785,"EPHEMERIS_TYPE":0,"NORAD_CAT_ID":65166,"ELEMENT_SET_NO":999,"REV_AT_EPOCH":4525,"BSTAR":0.000066536194,"MEAN_MOTION_DOT":4.3e-7,"MEAN_MOTION_DDOT":0},{"OBJECT_NAME":"HULIANWANG DIGUI-61","OBJECT_ID":"2025-174D","EPOCH":"2026-07-20T21:47:48.944832","CLASSIFICATION_TYPE":"U","MEAN_MOTION":13.24407932,"ECCENTRICITY":0.00017032,"INCLINATION":86.4941,"RA_OF_ASC_NODE":240.648,"ARG_OF_PERICENTER":102.2601,"MEAN_ANOMALY":257.8724,"EPHEMERIS_TYPE":0,"NORAD_CAT_ID":65167,"ELEMENT_SET_NO":999,"REV_AT_EPOCH":4525,"BSTAR":0.000089901236,"MEAN_MOTION_DOT":5.3e-7,"MEAN_MOTION_DDOT":0},{"OBJECT_NAME":"HULIANWANG DIGUI-62","OBJECT_ID":"2025-174E","EPOCH":"2026-07-20T21:58:30.936576","CLASSIFICATION_TYPE":"U","MEAN_MOTION":13.24409521,"ECCENTRICITY":0.00018143,"INCLINATION":86.4883,"RA_OF_ASC_NODE":240.4573,"ARG_OF_PERICENTER":105.6349,"MEAN_ANOMALY":254.4986,"EPHEMERIS_TYPE":0,"NORAD_CAT_ID":65168,"ELEMENT_SET_NO":999,"REV_AT_EPOCH":4525,"BSTAR":0.00006277357,"MEAN_MOTION_DOT":4.2e-7,"MEAN_MOTION_DDOT":0},{"OBJECT_NAME":"HULIANWANG DIGUI-63","OBJECT_ID":"2025-174F","EPOCH":"2026-07-20T22:09:19.351296","CLASSIFICATION_TYPE":"U","MEAN_MOTION":13.24403828,"ECCENTRICITY":0.00017103,"INCLINATION":86.4936,"RA_OF_ASC_NODE":240.6339,"ARG_OF_PERICENTER":106.4442,"MEAN_ANOMALY":253.688,"EPHEMERIS_TYPE":0,"NORAD_CAT_ID":65169,"ELEMENT_SET_NO":999,"REV_AT_EPOCH":4525,"BSTAR":0.000032122989,"MEAN_MOTION_DOT":2.8e-7,"MEAN_MOTION_DDOT":0},{"OBJECT_NAME":"HULIANWANG DIGUI-64","OBJECT_ID":"2025-174G","EPOCH":"2026-07-20T22:20:24.580320","CLASSIFICATION_TYPE":"U","MEAN_MOTION":13.24407782,"ECCENTRICITY":0.0001876,"INCLINATION":86.4894,"RA_OF_ASC_NODE":240.5022,"ARG_OF_PERICENTER":104.8351,"MEAN_ANOMALY":255.2991,"EPHEMERIS_TYPE":0,"NORAD_CAT_ID":65170,"ELEMENT_SET_NO":999,"REV_AT_EPOCH":4525,"BSTAR":0.00000533447,"MEAN_MOTION_DOT":1.7e-7,"MEAN_MOTION_DDOT":0},{"OBJECT_NAME":"HULIANWANG DIGUI-65","OBJECT_ID":"2025-174H","EPOCH":"2026-07-20T22:42:05.607936","CLASSIFICATION_TYPE":"U","MEAN_MOTION":13.24407762,"ECCENTRICITY":0.00017384,"INCLINATION":86.4857,"RA_OF_ASC_NODE":240.3881,"ARG_OF_PERICENTER":100.9864,"MEAN_ANOMALY":259.1466,"EPHEMERIS_TYPE":0,"NORAD_CAT_ID":65171,"ELEMENT_SET_NO":999,"REV_AT_EPOCH":4525,"BSTAR":-0.000014599369,"MEAN_MOTION_DOT":8e-8,"MEAN_MOTION_DDOT":0},{"OBJECT_NAME":"HULIANWANG DIGUI-66","OBJECT_ID":"2025-174J","EPOCH":"2026-07-20T22:31:16.678272","CLASSIFICATION_TYPE":"U","MEAN_MOTION":13.24407478,"ECCENTRICITY":0.00018811,"INCLINATION":86.4893,"RA_OF_ASC_NODE":240.5034,"ARG_OF_PERICENTER":102.8429,"MEAN_ANOMALY":257.2916,"EPHEMERIS_TYPE":0,"NORAD_CAT_ID":65172,"ELEMENT_SET_NO":999,"REV_AT_EPOCH":4525,"BSTAR":0.000012315292,"MEAN_MOTION_DOT":2e-7,"MEAN_MOTION_DDOT":0},{"OBJECT_NAME":"HULIANWANG DIGUI-67","OBJECT_ID":"2025-174K","EPOCH":"2026-07-20T22:52:58.753056","CLASSIFICATION_TYPE":"U","MEAN_MOTION":13.24408958,"ECCENTRICITY":0.0001845,"INCLINATION":86.4904,"RA_OF_ASC_NODE":240.5473,"ARG_OF_PERICENTER":101.2236,"MEAN_ANOMALY":258.9105,"EPHEMERIS_TYPE":0,"NORAD_CAT_ID":65173,"ELEMENT_SET_NO":999,"REV_AT_EPOCH":4522,"BSTAR":0.000026477794,"MEAN_MOTION_DOT":2.6e-7,"MEAN_MOTION_DDOT":0},{"OBJECT_NAME":"HULIANWANG DIGUI-68","OBJECT_ID":"2025-178A","EPOCH":"2026-07-20T21:36:38.505888","CLASSIFICATION_TYPE":"U","MEAN_MOTION":13.24411358,"ECCENTRICITY":0.00019645,"INCLINATION":86.4995,"RA_OF_ASC_NODE":2.1423,"ARG_OF_PERICENTER":91.7123,"MEAN_ANOMALY":268.4236,"EPHEMERIS_TYPE":0,"NORAD_CAT_ID":65228,"ELEMENT_SET_NO":999,"REV_AT_EPOCH":4477,"BSTAR":0.000002963877,"MEAN_MOTION_DOT":1.6e-7,"MEAN_MOTION_DDOT":0},{"OBJECT_NAME":"HULIANWANG DIGUI-69","OBJECT_ID":"2025-178B","EPOCH":"2026-07-20T21:25:54.924384","CLASSIFICATION_TYPE":"U","MEAN_MOTION":13.24412745,"ECCENTRICITY":0.00018907,"INCLINATION":86.5016,"RA_OF_ASC_NODE":2.2063,"ARG_OF_PERICENTER":92.468,"MEAN_ANOMALY":267.667,"EPHEMERIS_TYPE":0,"NORAD_CAT_ID":65229,"ELEMENT_SET_NO":999,"REV_AT_EPOCH":4477,"BSTAR":-0.000027431835,"MEAN_MOTION_DOT":3e-8,"MEAN_MOTION_DDOT":0},{"OBJECT_NAME":"HULIANWANG DIGUI-70","OBJECT_ID":"2025-178C","EPOCH":"2026-07-20T21:15:01.853568","CLASSIFICATION_TYPE":"U","MEAN_MOTION":13.24411816,"ECCENTRICITY":0.0001889,"INCLINATION":86.4948,"RA_OF_ASC_NODE":1.9968,"ARG_OF_PERICENTER":89.5288,"MEAN_ANOMALY":270.6063,"EPHEMERIS_TYPE":0,"NORAD_CAT_ID":65230,"ELEMENT_SET_NO":999,"REV_AT_EPOCH":4477,"BSTAR":-0.000026010189,"MEAN_MOTION_DOT":3e-8,"MEAN_MOTION_DDOT":0},{"OBJECT_NAME":"HULIANWANG DIGUI-71","OBJECT_ID":"2025-178D","EPOCH":"2026-07-20T21:04:10.675776","CLASSIFICATION_TYPE":"U","MEAN_MOTION":13.24411587,"ECCENTRICITY":0.00019446,"INCLINATION":86.5013,"RA_OF_ASC_NODE":2.1911,"ARG_OF_PERICENTER":90.4073,"MEAN_ANOMALY":269.7284,"EPHEMERIS_TYPE":0,"NORAD_CAT_ID":65231,"ELEMENT_SET_NO":999,"REV_AT_EPOCH":4477,"BSTAR":0.000019223356,"MEAN_MOTION_DOT":2.3e-7,"MEAN_MOTION_DDOT":0},{"OBJECT_NAME":"HULIANWANG DIGUI-72","OBJECT_ID":"2025-178E","EPOCH":"2026-07-20T20:53:18.186432","CLASSIFICATION_TYPE":"U","MEAN_MOTION":13.24411093,"ECCENTRICITY":0.00019508,"INCLINATION":86.4996,"RA_OF_ASC_NODE":2.1292,"ARG_OF_PERICENTER":90.7995,"MEAN_ANOMALY":269.3362,"EPHEMERIS_TYPE":0,"NORAD_CAT_ID":65232,"ELEMENT_SET_NO":999,"REV_AT_EPOCH":4477,"BSTAR":0.000067106677,"MEAN_MOTION_DOT":4.3e-7,"MEAN_MOTION_DDOT":0},{"OBJECT_NAME":"HULIANWANG DIGUI-73","OBJECT_ID":"2025-187A","EPOCH":"2026-07-20T23:14:06.182304","CLASSIFICATION_TYPE":"U","MEAN_MOTION":13.29323661,"ECCENTRICITY":0.00000683,"INCLINATION":50.0055,"RA_OF_ASC_NODE":84.727,"ARG_OF_PERICENTER":6.6784,"MEAN_ANOMALY":353.4089,"EPHEMERIS_TYPE":0,"NORAD_CAT_ID":65305,"ELEMENT_SET_NO":999,"REV_AT_EPOCH":4419,"BSTAR":0.000035328389,"MEAN_MOTION_DOT":-0.00000108,"MEAN_MOTION_DDOT":0},{"OBJECT_NAME":"HULIANWANG DIGUI-74","OBJECT_ID":"2025-187B","EPOCH":"2026-07-20T22:50:11.372928","CLASSIFICATION_TYPE":"U","MEAN_MOTION":13.29321778,"ECCENTRICITY":0.0000083,"INCLINATION":50.0098,"RA_OF_ASC_NODE":84.7502,"ARG_OF_PERICENTER":354.0594,"MEAN_ANOMALY":6.0277,"EPHEMERIS_TYPE":0,"NORAD_CAT_ID":65306,"ELEMENT_SET_NO":999,"REV_AT_EPOCH":4419,"BSTAR":0.000049135902,"MEAN_MOTION_DOT":-0.00000101,"MEAN_MOTION_DDOT":0},{"OBJECT_NAME":"HULIANWANG DIGUI-75","OBJECT_ID":"2025-187C","EPOCH":"2026-07-20T22:26:08.935296","CLASSIFICATION_TYPE":"U","MEAN_MOTION":13.29323068,"ECCENTRICITY":0.00000671,"INCLINATION":50.009,"RA_OF_ASC_NODE":84.6434,"ARG_OF_PERICENTER":10.5238,"MEAN_ANOMALY":349.5636,"EPHEMERIS_TYPE":0,"NORAD_CAT_ID":65307,"ELEMENT_SET_NO":999,"REV_AT_EPOCH":4419,"BSTAR":0.000056279711,"MEAN_MOTION_DOT":-9.8e-7,"MEAN_MOTION_DDOT":0}]}
